STARLINK-5441           
1 54787U 22175AF  26106.05335368  .00000009  00000+0  18622-4 0  9997
2 54787  53.2180 236.1077 0001211  85.6932 274.4198 15.08836912185569
STARLINK-5399           
1 54788U 22175AG  26105.60027446  .00005292  00000+0  35051-3 0  9996
2 54788  53.2162 223.2918 0000248 140.0032 220.0978 15.08818407185705
STARLINK-5446           
1 54789U 22175AH  26106.26220052  .00000921  00000+0  75939-4 0  9992
2 54789  53.2182 205.2172 0001171  87.0818 273.0308 15.08837993186019
STARLINK-5445           
1 54790U 22175AJ  26106.05657902 -.00000297  00000+0 -58500-6 0  9994
2 54790  53.2157 221.1637 0000952  87.4689 272.6412 15.08840655185774
STARLINK-5425           
1 54791U 22175AK  26106.00507963 -.00000386  00000+0 -61796-5 0  9990
2 54791  53.2182 221.5485 0001248  86.1594 273.9541 15.08838732185767
STARLINK-5431           
1 54792U 22175AL  26106.04599685  .00001095  00000+0  86855-4 0  9995
2 54792  53.2168 236.0607 0001289  87.3223 272.7917 15.08835010185564
STARLINK-5433           
1 54793U 22175AM  26106.27096680  .00001434  00000+0  10813-3 0  9995
2 54793  53.2174 210.4245 0001115  90.4216 269.6904 15.08841369185948
STARLINK-5436           
1 54795U 22175AP  26105.59659122  .00000139  00000+0  26811-4 0  9994
2 54795  53.2166 223.2680 0001824  89.5166 270.6035 15.08835170185700
STARLINK-5415           
1 54796U 22175AQ  26106.05289591 -.00000286  00000+0  10841-6 0  9998
2 54796  53.2165 221.1370 0000949  94.4319 265.6781 15.08838838185778
STARLINK-5435           
1 54797U 22175AR  26106.06537244  .00000381  00000+0  42119-4 0  9997
2 54797  53.2172 236.1772 0003661  98.0137 262.1270 15.08837429185568
STARLINK-5420           
1 54798U 22175AS  26105.98389886  .00000127  00000+0  26074-4 0  9995
2 54798  53.2168 211.4641 0001229  88.4102 271.7031 15.08839287185901
STARLINK-5421           
1 54799U 22175AT  26106.00232650  .00000977  00000+0  79475-4 0  9992
2 54799  53.2189 211.5837 0001310  91.8366 268.2776 15.08838731185904
STARLINK-5428           
1 54800U 22175AU  26106.05795944  .00000779  00000+0  67038-4 0  9992
2 54800  53.2166 226.1407 0001024  76.1010 284.0096 15.08845736185703
STARLINK-5429           
1 54801U 22175AV  26105.77364805  .00001203  00000+0  93655-4 0  9996
2 54801  53.2168 237.2027 0001339  92.0087 268.1058 15.08831496185526
STARLINK-5426           
1 54802U 22175AW  26106.22582009  .00000144  00000+0  27161-4 0  9998
2 54802  53.2165 180.0717 0001239  83.2434 276.8699 15.08835865186366
STARLINK-5430           
1 54803U 22175AX  26106.04966684  .00000277  00000+0  35513-4 0  9991
2 54803  53.2167 236.0675 0001415  91.8245 268.2909 15.08838839185569
STARLINK-5422           
1 54804U 22175AY  26106.29575005  .00000622  00000+0  57149-4 0  9995
2 54804  53.2169 219.8186 0001035  88.6307 271.4804 15.08836993185816
STARLINK-5417           
1 54805U 22175AZ  26106.04921148 -.00002393  00000+0 -13236-3 0  9999
2 54805  53.2150 221.1159 0001027 100.0208 260.0900 15.08832264185776
STARLINK-5412           
1 54806U 22175BA  26106.30313702  .00001090  00000+0  86598-4 0  9993
2 54806  53.2167 219.8590 0001050 103.4234 256.6875 15.08825945185815
STARLINK-5410           
1 54807U 22175BB  26106.30680451  .00000530  00000+0  51394-4 0  9996
2 54807  53.2160 219.8824 0001147  89.5650 270.5473 15.08837485185813
STARLINK-5413           
1 54808U 22175BC  26106.28064361 -.00001038  00000+0 -47145-4 0  9995
2 54808  53.2170 205.5395 0001358  92.7252 267.3896 15.08837182186018
STARLINK-5414           
1 54809U 22175BD  26105.63703167  .00000173  00000+0  28961-4 0  9990
2 54809  53.2179 222.8119 0001250  90.6171 269.4965 15.08839705185711
STARLINK-5408           
1 54810U 22175BE  26105.98896135  .00001350  00000+0  10288-3 0  9998
2 54810  53.2168 216.4467 0001208  94.6447 265.4683 15.08839097185839
STARLINK-5424           
1 54811U 22175BF  26106.01571325 -.00000698  00000+0 -25791-4 0  9997
2 54811  53.2191 216.6033 0001413  89.6447 270.4708 15.08835807185838
STARLINK-5382           
1 54820U 22177A   26106.19525914  .00000557  00000+0  30444-4 0  9994
2 54820  43.0022 283.8849 0000996 273.2402  86.8335 15.26739459182665
STARLINK-5385           
1 54821U 22177B   26106.21010779  .00000320  00000+0  21611-4 0  9990
2 54821  43.0024 283.9952 0001250 273.9498  86.1210 15.26739215182665
STARLINK-5101           
1 54822U 22177C   26106.21471647  .00003681  00000+0  14673-3 0  9998
2 54822  43.0038 284.0281 0002747 259.2965 100.7577 15.26766916182663
STARLINK-5106           
1 54823U 22177D   26106.20911579  .00000273  00000+0  19876-4 0  9996
2 54823  43.0039 283.9837 0001468 269.4998  90.5685 15.26736640182665
STARLINK-4643           
1 54824U 22177E   26106.21403445  .00009435  00000+0  36019-3 0  9992
2 54824  43.0046 284.0222 0003448 248.6580 111.3903 15.26810895182660
STARLINK-5107           
1 54826U 22177G   26105.83595765  .00000860  00000+0  40797-4 0  9990
2 54826  43.0009 286.3428 0001630 260.3878  99.6789 15.27575057182609
