OBJECT_NAME,OBJECT_ID,EPOCH,MEAN_MOTION,ECCENTRICITY,INCLINATION,RA_OF_ASC_NODE,ARG_OF_PERICENTER,MEAN_ANOMALY,EPHEMERIS_TYPE,CLASSIFICATION_TYPE,NORAD_CAT_ID,ELEMENT_SET_NO,REV_AT_EPOCH,BSTAR,MEAN_MOTION_DOT,MEAN_MOTION_DDOT
STARLINK-5441,2022-175AF,2026-04-16T01:16:49.757952,15.08836912,0.00012111,53.218,236.1077,85.6932,274.4198,0,U,54787,999,18556,1.8622381e-05,9e-08,0.0
STARLINK-5399,2022-175AG,2026-04-15T14:24:23.713344,15.08818407,2.48e-05,53.2162,223.2918,140.0032,220.0978,0,U,54788,999,18570,0.00035051,5.292e-05,0.0
STARLINK-5446,2022-175AH,2026-04-16T06:17:34.124928,15.08837993,0.0001171,53.2182,205.2172,87.0818,273.0308,0,U,54789,999,18601,7.5938781e-05,9.21e-06,0.0
STARLINK-5445,2022-175AJ,2026-04-16T01:21:28.427328,15.08840655,9.526e-05,53.2157,221.1637,87.4689,272.6412,0,U,54790,999,18577,-5.85004e-07,-2.97e-06,0.0
STARLINK-5425,2022-175AK,2026-04-16T00:07:18.880032,15.08838732,0.00012488,53.2182,221.5485,86.1594,273.9541,0,U,54791,999,18576,-6.179626e-06,-3.86e-06,0.0
STARLINK-5431,2022-175AL,2026-04-16T01:06:14.127840,15.0883501,0.00012897,53.2168,236.0607,87.3223,272.7917,0,U,54792,999,18556,8.6854949e-05,1.095e-05,0.0
STARLINK-5433,2022-175AM,2026-04-16T06:30:11.531520,15.08841369,0.00011154,53.2174,210.4245,90.4216,269.6904,0,U,54793,999,18594,0.00010812981,1.434e-05,0.0
STARLINK-5436,2022-175AP,2026-04-15T14:19:05.481408,15.0883517,0.0001824,53.2166,223.268,89.5166,270.6035,0,U,54795,999,18570,2.6811e-05,1.39e-06,0.0
STARLINK-5415,2022-175AQ,2026-04-16T01:16:10.206624,15.08838838,9.498e-05,53.2165,221.137,94.4319,265.6781,0,U,54796,999,18577,1.08414e-07,-2.86e-06,0.0
STARLINK-5435,2022-175AR,2026-04-16T01:34:08.178816,15.08837429,0.00036616,53.2172,236.1772,98.0137,262.127,0,U,54797,999,18556,4.2118876e-05,3.81e-06,0.0
STARLINK-5420,2022-175AS,2026-04-15T23:36:48.861504,15.08839287,0.00012295,53.2168,211.4641,88.4102,271.7031,0,U,54798,999,18590,2.6073645e-05,1.27e-06,0.0
STARLINK-5421,2022-175AT,2026-04-16T00:03:21.009600,15.08838731,0.000131,53.2189,211.5837,91.8366,268.2776,0,U,54799,999,18590,7.9475118e-05,9.77e-06,0.0
STARLINK-5428,2022-175AU,2026-04-16T01:23:27.695616,15.08845736,0.00010249,53.2166,226.1407,76.101,284.0096,0,U,54800,999,18570,6.7038097e-05,7.79e-06,0.0
STARLINK-5429,2022-175AV,2026-04-15T18:34:03.191520,15.08831496,0.00013394,53.2168,237.2027,92.0087,268.1058,0,U,54801,999,18552,9.3654572e-05,1.203e-05,0.0
STARLINK-5426,2022-175AW,2026-04-16T05:25:10.855776,15.08835865,0.00012395,53.2165,180.0717,83.2434,276.8699,0,U,54802,999,18636,2.7161265e-05,1.44e-06,0.0
STARLINK-5430,2022-175AX,2026-04-16T01:11:31.214976,15.08838839,0.00014152,53.2167,236.0675,91.8245,268.2909,0,U,54803,999,18556,3.5513222e-05,2.77e-06,0.0
STARLINK-5422,2022-175AY,2026-04-16T07:05:52.804320,15.08836993,0.00010351,53.2169,219.8186,88.6307,271.4804,0,U,54804,999,18581,5.7149249e-05,6.22e-06,0.0
STARLINK-5417,2022-175AZ,2026-04-16T01:10:51.871872,15.08832264,0.00010278,53.215,221.1159,100.0208,260.09,0,U,54805,999,18577,-0.0001323571,-2.393e-05,0.0
STARLINK-5412,2022-175BA,2026-04-16T07:16:31.038528,15.08825945,0.000105,53.2167,219.859,103.4234,256.6875,0,U,54806,999,18581,8.6598416e-05,1.09e-05,0.0
STARLINK-5410,2022-175BB,2026-04-16T07:21:47.909664,15.08837485,0.00011479,53.216,219.8824,89.565,270.5473,0,U,54807,999,18581,5.1393779e-05,5.3e-06,0.0
STARLINK-5413,2022-175BC,2026-04-16T06:44:07.607904,15.08837182,0.00013584,53.217,205.5395,92.7252,267.3896,0,U,54808,999,18601,-4.7145e-05,-1.038e-05,0.0
STARLINK-5414,2022-175BD,2026-04-15T15:17:19.536288,15.08839705,0.000125,53.2179,222.8119,90.6171,269.4965,0,U,54809,999,18571,2.8961e-05,1.73e-06,0.0
STARLINK-5408,2022-175BE,2026-04-15T23:44:06.260640,15.08839097,0.0001208,53.2168,216.4467,94.6447,265.4683,0,U,54810,999,18583,0.00010288118,1.35e-05,0.0
STARLINK-5424,2022-175BF,2026-04-16T00:22:37.624800,15.08835807,0.00014136,53.2191,216.6033,89.6447,270.4708,0,U,54811,999,18583,-2.5791097e-05,-6.98e-06,0.0
STARLINK-5382,2022-177A,2026-04-16T04:41:10.389696,15.26739459,9.966e-05,43.0022,283.8849,273.2402,86.8335,0,U,54820,999,18266,3.0443994e-05,5.57e-06,0.0
STARLINK-5385,2022-177B,2026-04-16T05:02:33.313056,15.26739215,0.00012509,43.0024,283.9952,273.9498,86.121,0,U,54821,999,18266,2.1611019e-05,3.2e-06,0.0
STARLINK-5101,2022-177C,2026-04-16T05:09:11.503008,15.26766916,0.00027476,43.0038,284.0281,259.2965,100.7577,0,U,54822,999,18266,0.00014673171,3.681e-05,0.0
STARLINK-5106,2022-177D,2026-04-16T05:01:07.604256,15.2673664,0.00014682,43.0039,283.9837,269.4998,90.5685,0,U,54823,999,18266,1.987642e-05,2.73e-06,0.0
STARLINK-4643,2022-177E,2026-04-16T05:08:12.576480,15.26810895,0.0003448,43.0046,284.0222,248.658,111.3903,0,U,54824,999,18266,0.00036019016,9.435e-05,0.0
STARLINK-5107,2022-177G,2026-04-15T20:03:46.740960,15.27575057,0.00016306,43.0009,286.3428,260.3878,99.6789,0,U,54826,999,18260,4.0796781e-05,8.6e-06,0.0
